CCSDS_OMM_VERS = 2.0
CREATION_DATE  = 
ORIGINATOR     = 

OBJECT_NAME    = CSG-3
OBJECT_ID      = 2026-001A
CENTER_NAME    = EARTH
REF_FRAME      = TEME
TIME_SYSTEM    = UTC
MEAN_ELEMENT_THEORY = SGP/SGP4

EPOCH          = 2026-01-31T06:54:21.251808
MEAN_MOTION    = 14.82339568
ECCENTRICITY   = .00021455
INCLINATION    = 97.8670
RA_OF_ASC_NODE = 216.8753
ARG_OF_PERICENTER = 83.2840
MEAN_ANOMALY   = 276.8618

EPHEMERIS_TYPE = 0
CLASSIFICATION_TYPE = U
NORAD_CAT_ID   = 67304
ELEMENT_SET_NO = 999
REV_AT_EPOCH   = 418
BSTAR          = -.6157029E-3
MEAN_MOTION_DOT = -.4972E-4
MEAN_MOTION_DDOT = 0

CCSDS_OMM_VERS = 2.0
CREATION_DATE  = 
ORIGINATOR     = 

OBJECT_NAME    = STARLINK-36490
OBJECT_ID      = 2026-002A
CENTER_NAME    = EARTH
REF_FRAME      = TEME
TIME_SYSTEM    = UTC
MEAN_ELEMENT_THEORY = SGP/SGP4

EPOCH          = 2026-01-31T06:00:02.999808
MEAN_MOTION    = 15.50520396
ECCENTRICITY   = .00020946
INCLINATION    = 42.9996
RA_OF_ASC_NODE = 178.0384
ARG_OF_PERICENTER = 268.0380
MEAN_ANOMALY   = 236.8553

EPHEMERIS_TYPE = 0
CLASSIFICATION_TYPE = U
NORAD_CAT_ID   = 67305
ELEMENT_SET_NO = 999
REV_AT_EPOCH   = 545
BSTAR          = .12036331E-2
MEAN_MOTION_DOT = .70765E-3
MEAN_MOTION_DDOT = 0

CCSDS_OMM_VERS = 2.0
CREATION_DATE  = 
ORIGINATOR     = 

OBJECT_NAME    = STARLINK-36488
OBJECT_ID      = 2026-002B
CENTER_NAME    = EARTH
REF_FRAME      = TEME
TIME_SYSTEM    = UTC
MEAN_ELEMENT_THEORY = SGP/SGP4

EPOCH          = 2026-01-31T06:00:02.999808
MEAN_MOTION    = 15.50520155
ECCENTRICITY   = .0001749
INCLINATION    = 42.9994
RA_OF_ASC_NODE = 178.0342
ARG_OF_PERICENTER = 268.2589
MEAN_ANOMALY   = 238.5475

EPHEMERIS_TYPE = 0
CLASSIFICATION_TYPE = U
NORAD_CAT_ID   = 67306
ELEMENT_SET_NO = 999
REV_AT_EPOCH   = 540
BSTAR          = .12045717E-2
MEAN_MOTION_DOT = .70819E-3
MEAN_MOTION_DDOT = 0

CCSDS_OMM_VERS = 2.0
CREATION_DATE  = 
ORIGINATOR     = 

OBJECT_NAME    = STARLINK-36481
OBJECT_ID      = 2026-002C
CENTER_NAME    = EARTH
REF_FRAME      = TEME
TIME_SYSTEM    = UTC
MEAN_ELEMENT_THEORY = SGP/SGP4

EPOCH          = 2026-01-31T06:00:02.999808
MEAN_MOTION    = 15.50521466
ECCENTRICITY   = .00019631
INCLINATION    = 42.9994
RA_OF_ASC_NODE = 178.0240
ARG_OF_PERICENTER = 270.7003
MEAN_ANOMALY   = 239.9434

EPHEMERIS_TYPE = 0
CLASSIFICATION_TYPE = U
NORAD_CAT_ID   = 67307
ELEMENT_SET_NO = 999
REV_AT_EPOCH   = 540
BSTAR          = .11386009E-2
MEAN_MOTION_DOT = .66891E-3
MEAN_MOTION_DDOT = 0

CCSDS_OMM_VERS = 2.0
CREATION_DATE  = 
ORIGINATOR     = 

OBJECT_NAME    = STARLINK-36449
OBJECT_ID      = 2026-002D
CENTER_NAME    = EARTH
REF_FRAME      = TEME
TIME_SYSTEM    = UTC
MEAN_ELEMENT_THEORY = SGP/SGP4

EPOCH          = 2026-01-31T06:00:02.999808
MEAN_MOTION    = 15.50521344
ECCENTRICITY   = .00019686
INCLINATION    = 42.9996
RA_OF_ASC_NODE = 178.0190
ARG_OF_PERICENTER = 270.2917
MEAN_ANOMALY   = 242.2680

EPHEMERIS_TYPE = 0
CLASSIFICATION_TYPE = U
NORAD_CAT_ID   = 67308
ELEMENT_SET_NO = 999
REV_AT_EPOCH   = 545
BSTAR          = .11611236E-2
MEAN_MOTION_DOT = .68233E-3
MEAN_MOTION_DDOT = 0

CCSDS_OMM_VERS = 2.0
CREATION_DATE  = 
ORIGINATOR     = 

OBJECT_NAME    = STARLINK-36482
OBJECT_ID      = 2026-002E
CENTER_NAME    = EARTH
REF_FRAME      = TEME
TIME_SYSTEM    = UTC
MEAN_ELEMENT_THEORY = SGP/SGP4

EPOCH          = 2026-01-31T06:00:02.999808
MEAN_MOTION    = 15.50525205
ECCENTRICITY   = .00020069
INCLINATION    = 42.9993
RA_OF_ASC_NODE = 177.9963
ARG_OF_PERICENTER = 272.0922
MEAN_ANOMALY   = 250.0449

EPHEMERIS_TYPE = 0
CLASSIFICATION_TYPE = U
NORAD_CAT_ID   = 67309
ELEMENT_SET_NO = 999
REV_AT_EPOCH   = 540
BSTAR          = .11610902E-2
MEAN_MOTION_DOT = .6824E-3
MEAN_MOTION_DDOT = 0

CCSDS_OMM_VERS = 2.0
CREATION_DATE  = 
ORIGINATOR     = 

OBJECT_NAME    = STARLINK-36491
OBJECT_ID      = 2026-002F
CENTER_NAME    = EARTH
REF_FRAME      = TEME
TIME_SYSTEM    = UTC
MEAN_ELEMENT_THEORY = SGP/SGP4

EPOCH          = 2026-01-31T06:00:02.999808
MEAN_MOTION    = 15.50519128
ECCENTRICITY   = .00016122
INCLINATION    = 42.9993
RA_OF_ASC_NODE = 178.0303
ARG_OF_PERICENTER = 272.8058
MEAN_ANOMALY   = 235.9216

EPHEMERIS_TYPE = 0
CLASSIFICATION_TYPE = U
NORAD_CAT_ID   = 67310
ELEMENT_SET_NO = 999
REV_AT_EPOCH   = 540
BSTAR          = .12319693E-2
MEAN_MOTION_DOT = .72449E-3
MEAN_MOTION_DDOT = 0

CCSDS_OMM_VERS = 2.0
CREATION_DATE  = 
ORIGINATOR     = 

OBJECT_NAME    = STARLINK-36495
OBJECT_ID      = 2026-002G
CENTER_NAME    = EARTH
REF_FRAME      = TEME
TIME_SYSTEM    = UTC
MEAN_ELEMENT_THEORY = SGP/SGP4

EPOCH          = 2026-01-31T06:00:02.999808
MEAN_MOTION    = 15.50520442
ECCENTRICITY   = .00019853
INCLINATION    = 42.9994
RA_OF_ASC_NODE = 178.0144
ARG_OF_PERICENTER = 270.3817
MEAN_ANOMALY   = 244.0988

EPHEMERIS_TYPE = 0
CLASSIFICATION_TYPE = U
NORAD_CAT_ID   = 67311
ELEMENT_SET_NO = 999
REV_AT_EPOCH   = 555
BSTAR          = .11438985E-2
MEAN_MOTION_DOT = .67205E-3
MEAN_MOTION_DDOT = 0

CCSDS_OMM_VERS = 2.0
CREATION_DATE  = 
ORIGINATOR     = 

OBJECT_NAME    = STARLINK-36485
OBJECT_ID      = 2026-002H
CENTER_NAME    = EARTH
REF_FRAME      = TEME
TIME_SYSTEM    = UTC
MEAN_ELEMENT_THEORY = SGP/SGP4

EPOCH          = 2026-01-31T06:00:02.999808
MEAN_MOTION    = 15.50522220
ECCENTRICITY   = .00021167
INCLINATION    = 42.9993
RA_OF_ASC_NODE = 178.0096
ARG_OF_PERICENTER = 271.8067
MEAN_ANOMALY   = 244.5899

EPHEMERIS_TYPE = 0
CLASSIFICATION_TYPE = U
NORAD_CAT_ID   = 67312
ELEMENT_SET_NO = 999
REV_AT_EPOCH   = 540
BSTAR          = .11148108E-2
MEAN_MOTION_DOT = .65477E-3
MEAN_MOTION_DDOT = 0

CCSDS_OMM_VERS = 2.0
CREATION_DATE  = 
ORIGINATOR     = 

OBJECT_NAME    = STARLINK-36445
OBJECT_ID      = 2026-002J
CENTER_NAME    = EARTH
REF_FRAME      = TEME
TIME_SYSTEM    = UTC
MEAN_ELEMENT_THEORY = SGP/SGP4

EPOCH          = 2026-01-31T06:00:02.999808
MEAN_MOTION    = 15.50516575
ECCENTRICITY   = .00017952
INCLINATION    = 42.9995
RA_OF_ASC_NODE = 178.0056
ARG_OF_PERICENTER = 263.1248
MEAN_ANOMALY   = 255.1904

EPHEMERIS_TYPE = 0
CLASSIFICATION_TYPE = U
NORAD_CAT_ID   = 67313
ELEMENT_SET_NO = 999
REV_AT_EPOCH   = 555
BSTAR          = .13268577E-2
MEAN_MOTION_DOT = .78106E-3
MEAN_MOTION_DDOT = 0

CCSDS_OMM_VERS = 2.0
CREATION_DATE  = 
ORIGINATOR     = 

OBJECT_NAME    = STARLINK-36476
OBJECT_ID      = 2026-002K
CENTER_NAME    = EARTH
REF_FRAME      = TEME
TIME_SYSTEM    = UTC
MEAN_ELEMENT_THEORY = SGP/SGP4

EPOCH          = 2026-01-31T06:00:02.999808
MEAN_MOTION    = 15.50523035
ECCENTRICITY   = .00020294
INCLINATION    = 42.9993
RA_OF_ASC_NODE = 178.0007
ARG_OF_PERICENTER = 274.2079
MEAN_ANOMALY   = 246.0178

EPHEMERIS_TYPE = 0
CLASSIFICATION_TYPE = U
NORAD_CAT_ID   = 67314
ELEMENT_SET_NO = 999
REV_AT_EPOCH   = 540
BSTAR          = .11662498E-2
MEAN_MOTION_DOT = .68543E-3
MEAN_MOTION_DDOT = 0

CCSDS_OMM_VERS = 2.0
CREATION_DATE  = 
ORIGINATOR     = 

OBJECT_NAME    = STARLINK-36463
OBJECT_ID      = 2026-002L
CENTER_NAME    = EARTH
REF_FRAME      = TEME
TIME_SYSTEM    = UTC
MEAN_ELEMENT_THEORY = SGP/SGP4

EPOCH          = 2026-01-31T06:00:02.999808
MEAN_MOTION    = 15.50598279
ECCENTRICITY   = .00019409
INCLINATION    = 42.9993
RA_OF_ASC_NODE = 177.9904
ARG_OF_PERICENTER = 274.3559
MEAN_ANOMALY   = 249.6831

EPHEMERIS_TYPE = 0
CLASSIFICATION_TYPE = U
NORAD_CAT_ID   = 67315
ELEMENT_SET_NO = 999
REV_AT_EPOCH   = 546
BSTAR          = -.11328724E-2
MEAN_MOTION_DOT = -.6629E-3
MEAN_MOTION_DDOT = 0

