CSG-3                   
1 67304U 26001A   26031.28774597 -.00004972  00000+0 -61570-3 0  9995
2 67304  97.8670 216.8753 0002145  83.2840 276.8618 14.82339568  4188
STARLINK-36490          
1 67305U 26002A   26031.25003472  .00070765  00000+0  12036-2 0  9994
2 67305  42.9996 178.0384 0002094 268.0380 236.8553 15.50520396  5457
STARLINK-36488          
1 67306U 26002B   26031.25003472  .00070819  00000+0  12046-2 0  9996
2 67306  42.9994 178.0342 0001749 268.2589 238.5475 15.50520155  5409
STARLINK-36481          
1 67307U 26002C   26031.25003472  .00066891  00000+0  11386-2 0  9998
2 67307  42.9994 178.0240 0001963 270.7003 239.9434 15.50521466  5400
STARLINK-36449          
1 67308U 26002D   26031.25003472  .00068233  00000+0  11611-2 0  9992
2 67308  42.9996 178.0190 0001968 270.2917 242.2680 15.50521344  5451
STARLINK-36482          
1 67309U 26002E   26031.25003472  .00068240  00000+0  11611-2 0  9991
2 67309  42.9993 177.9963 0002006 272.0922 250.0449 15.50525205  5400
STARLINK-36491          
1 67310U 26002F   26031.25003472  .00072449  00000+0  12320-2 0  9997
2 67310  42.9993 178.0303 0001612 272.8058 235.9216 15.50519128  5403
STARLINK-36495          
1 67311U 26002G   26031.25003472  .00067205  00000+0  11439-2 0  9992
2 67311  42.9994 178.0144 0001985 270.3817 244.0988 15.50520442  5551
STARLINK-36485          
1 67312U 26002H   26031.25003472  .00065477  00000+0  11148-2 0  9999
2 67312  42.9993 178.0096 0002116 271.8067 244.5899 15.50522220  5403
STARLINK-36445          
1 67313U 26002J   26031.25003472  .00078106  00000+0  13269-2 0  9999
2 67313  42.9995 178.0056 0001795 263.1248 255.1904 15.50516575  5556
STARLINK-36476          
1 67314U 26002K   26031.25003472  .00068543  00000+0  11662-2 0  9999
2 67314  42.9993 178.0007 0002029 274.2079 246.0178 15.50523035  5402
STARLINK-36463          
1 67315U 26002L   26031.25003472 -.00066290  00000+0 -11329-2 0  9999
2 67315  42.9993 177.9904 0001940 274.3559 249.6831 15.50598279  5465
